[{"OBJECT_NAME":"QIANFAN-69","OBJECT_ID":"2025-016Q","EPOCH":"2026-03-26T11:03:43.278912","MEAN_MOTION":13.51006348,"ECCENTRICITY":0.0017454,"INCLINATION":88.9655,"RA_OF_ASC_NODE":92.1976,"ARG_OF_PERICENTER":50.6051,"MEAN_ANOMALY":309.6643,"EPHEMERIS_TYPE":0,"CLASSIFICATION_TYPE":"U","NORAD_CAT_ID":62799,"ELEMENT_SET_NO":999,"REV_AT_EPOCH":6128,"BSTAR":3.0856e-5,"MEAN_MOTION_DOT":3.2e-7,"MEAN_MOTION_DDOT":0},{"OBJECT_NAME":"QIANFAN-70","OBJECT_ID":"2025-016R","EPOCH":"2026-03-26T11:27:28.128096","MEAN_MOTION":13.51007861,"ECCENTRICITY":0.0016777,"INCLINATION":88.9675,"RA_OF_ASC_NODE":92.3562,"ARG_OF_PERICENTER":41.9761,"MEAN_ANOMALY":318.2673,"EPHEMERIS_TYPE":0,"CLASSIFICATION_TYPE":"U","NORAD_CAT_ID":62800,"ELEMENT_SET_NO":999,"REV_AT_EPOCH":6124,"BSTAR":8.5445e-6,"MEAN_MOTION_DOT":1.8e-7,"MEAN_MOTION_DDOT":0},{"OBJECT_NAME":"QIANFAN-71","OBJECT_ID":"2025-016S","EPOCH":"2026-03-26T09:34:54.355872","MEAN_MOTION":13.50997381,"ECCENTRICITY":0.0017451,"INCLINATION":88.9669,"RA_OF_ASC_NODE":92.3376,"ARG_OF_PERICENTER":54.0053,"MEAN_ANOMALY":306.2713,"EPHEMERIS_TYPE":0,"CLASSIFICATION_TYPE":"U","NORAD_CAT_ID":62801,"ELEMENT_SET_NO":999,"REV_AT_EPOCH":6123,"BSTAR":1.3801e-5,"MEAN_MOTION_DOT":2.1e-7,"MEAN_MOTION_DDOT":0},{"OBJECT_NAME":"QIANFAN-72","OBJECT_ID":"2025-016T","EPOCH":"2026-03-26T11:45:17.214048","MEAN_MOTION":13.50996903,"ECCENTRICITY":0.0020858,"INCLINATION":88.966,"RA_OF_ASC_NODE":92.3314,"ARG_OF_PERICENTER":59.5872,"MEAN_ANOMALY":300.7337,"EPHEMERIS_TYPE":0,"CLASSIFICATION_TYPE":"U","NORAD_CAT_ID":62802,"ELEMENT_SET_NO":999,"REV_AT_EPOCH":6123,"BSTAR":2.7283e-5,"MEAN_MOTION_DOT":3.0e-7,"MEAN_MOTION_DDOT":0},{"OBJECT_NAME":"QIANFAN-73","OBJECT_ID":"2025-046A","EPOCH":"2026-03-26T12:23:54.564864","MEAN_MOTION":13.51002674,"ECCENTRICITY":0.0014645,"INCLINATION":88.9721,"RA_OF_ASC_NODE":309.2973,"ARG_OF_PERICENTER":176.9923,"MEAN_ANOMALY":183.1319,"EPHEMERIS_TYPE":0,"CLASSIFICATION_TYPE":"U","NORAD_CAT_ID":63159,"ELEMENT_SET_NO":999,"REV_AT_EPOCH":6142,"BSTAR":7.5668e-5,"MEAN_MOTION_DOT":6.1e-7,"MEAN_MOTION_DDOT":0},{"OBJECT_NAME":"QIANFAN-74","OBJECT_ID":"2025-046B","EPOCH":"2026-03-26T12:00:14.600736","MEAN_MOTION":13.51003525,"ECCENTRICITY":0.0002006,"INCLINATION":88.9721,"RA_OF_ASC_NODE":309.188,"ARG_OF_PERICENTER":80.1802,"MEAN_ANOMALY":279.9576,"EPHEMERIS_TYPE":0,"CLASSIFICATION_TYPE":"U","NORAD_CAT_ID":63160,"ELEMENT_SET_NO":999,"REV_AT_EPOCH":6148,"BSTAR":0.00013155,"MEAN_MOTION_DOT":9.7e-7,"MEAN_MOTION_DDOT":0},{"OBJECT_NAME":"QIANFAN-75","OBJECT_ID":"2025-046C","EPOCH":"2026-03-26T13:29:23.610048","MEAN_MOTION":13.50973315,"ECCENTRICITY":0.0015706,"INCLINATION":88.9723,"RA_OF_ASC_NODE":309.4168,"ARG_OF_PERICENTER":180.5273,"MEAN_ANOMALY":179.5865,"EPHEMERIS_TYPE":0,"CLASSIFICATION_TYPE":"U","NORAD_CAT_ID":63161,"ELEMENT_SET_NO":999,"REV_AT_EPOCH":6136,"BSTAR":3.054e-5,"MEAN_MOTION_DOT":3.2e-7,"MEAN_MOTION_DDOT":0},{"OBJECT_NAME":"QIANFAN-76","OBJECT_ID":"2025-046D","EPOCH":"2026-03-26T13:23:05.182368","MEAN_MOTION":13.50999872,"ECCENTRICITY":0.001323,"INCLINATION":88.9723,"RA_OF_ASC_NODE":309.397,"ARG_OF_PERICENTER":179.8535,"MEAN_ANOMALY":180.2622,"EPHEMERIS_TYPE":0,"CLASSIFICATION_TYPE":"U","NORAD_CAT_ID":63162,"ELEMENT_SET_NO":999,"REV_AT_EPOCH":6137,"BSTAR":4.6244e-5,"MEAN_MOTION_DOT":4.2e-7,"MEAN_MOTION_DDOT":0},{"OBJECT_NAME":"QIANFAN-77","OBJECT_ID":"2025-046E","EPOCH":"2026-03-26T12:52:06.973248","MEAN_MOTION":13.96183657,"ECCENTRICITY":0.0016605,"INCLINATION":88.972,"RA_OF_ASC_NODE":306.5519,"ARG_OF_PERICENTER":112.9597,"MEAN_ANOMALY":247.3334,"EPHEMERIS_TYPE":0,"CLASSIFICATION_TYPE":"U","NORAD_CAT_ID":63163,"ELEMENT_SET_NO":999,"REV_AT_EPOCH":6293,"BSTAR":7.3059e-5,"MEAN_MOTION_DOT":1.14e-6,"MEAN_MOTION_DDOT":0},{"OBJECT_NAME":"QIANFAN-78","OBJECT_ID":"2025-046F","EPOCH":"2026-03-26T10:49:05.191392","MEAN_MOTION":13.5100516,"ECCENTRICITY":0.0014485,"INCLINATION":88.9721,"RA_OF_ASC_NODE":309.2711,"ARG_OF_PERICENTER":183.4255,"MEAN_ANOMALY":176.6799,"EPHEMERIS_TYPE":0,"CLASSIFICATION_TYPE":"U","NORAD_CAT_ID":63164,"ELEMENT_SET_NO":999,"REV_AT_EPOCH":6143,"BSTAR":0.00022352,"MEAN_MOTION_DOT":1.56e-6,"MEAN_MOTION_DDOT":0},{"OBJECT_NAME":"QIANFAN-79","OBJECT_ID":"2025-046G","EPOCH":"2026-03-26T13:17:11.971392","MEAN_MOTION":13.51013818,"ECCENTRICITY":0.00144,"INCLINATION":88.9725,"RA_OF_ASC_NODE":309.372,"ARG_OF_PERICENTER":181.3693,"MEAN_ANOMALY":178.7421,"EPHEMERIS_TYPE":0,"CLASSIFICATION_TYPE":"U","NORAD_CAT_ID":63165,"ELEMENT_SET_NO":999,"REV_AT_EPOCH":6139,"BSTAR":9.8059e-5,"MEAN_MOTION_DOT":7.5e-7,"MEAN_MOTION_DDOT":0},{"OBJECT_NAME":"QIANFAN-80","OBJECT_ID":"2025-046H","EPOCH":"2026-03-26T11:54:15.200928","MEAN_MOTION":13.51002333,"ECCENTRICITY":0.0013106,"INCLINATION":88.9722,"RA_OF_ASC_NODE":309.082,"ARG_OF_PERICENTER":185.263,"MEAN_ANOMALY":174.8385,"EPHEMERIS_TYPE":0,"CLASSIFICATION_TYPE":"U","NORAD_CAT_ID":63166,"ELEMENT_SET_NO":999,"REV_AT_EPOCH":6154,"BSTAR":4.4582e-5,"MEAN_MOTION_DOT":4.1e-7,"MEAN_MOTION_DDOT":0},{"OBJECT_NAME":"QIANFAN-81","OBJECT_ID":"2025-046J","EPOCH":"2026-03-26T13:09:59.118624","MEAN_MOTION":13.50967612,"ECCENTRICITY":0.0014487,"INCLINATION":88.9722,"RA_OF_ASC_NODE":309.1445,"ARG_OF_PERICENTER":174.6317,"MEAN_ANOMALY":185.4993,"EPHEMERIS_TYPE":0,"CLASSIFICATION_TYPE":"U","NORAD_CAT_ID":63167,"ELEMENT_SET_NO":999,"REV_AT_EPOCH":6150,"BSTAR":-2.2459e-6,"MEAN_MOTION_DOT":1.1e-7,"MEAN_MOTION_DDOT":0},{"OBJECT_NAME":"QIANFAN-82","OBJECT_ID":"2025-046K","EPOCH":"2026-03-26T12:12:03.404736","MEAN_MOTION":13.5100396,"ECCENTRICITY":0.0012364,"INCLINATION":88.9722,"RA_OF_ASC_NODE":309.1925,"ARG_OF_PERICENTER":180.768,"MEAN_ANOMALY":179.3454,"EPHEMERIS_TYPE":0,"CLASSIFICATION_TYPE":"U","NORAD_CAT_ID":63168,"ELEMENT_SET_NO":999,"REV_AT_EPOCH":6148,"BSTAR":4.5567e-5,"MEAN_MOTION_DOT":4.2e-7,"MEAN_MOTION_DDOT":0},{"OBJECT_NAME":"QIANFAN-83","OBJECT_ID":"2025-046L","EPOCH":"2026-03-26T12:07:56.770752","MEAN_MOTION":13.62027922,"ECCENTRICITY":0.0014372,"INCLINATION":88.9722,"RA_OF_ASC_NODE":308.7651,"ARG_OF_PERICENTER":160.7714,"MEAN_ANOMALY":199.3989,"EPHEMERIS_TYPE":0,"CLASSIFICATION_TYPE":"U","NORAD_CAT_ID":63169,"ELEMENT_SET_NO":999,"REV_AT_EPOCH":6172,"BSTAR":9.6674e-5,"MEAN_MOTION_DOT":8.7e-7,"MEAN_MOTION_DDOT":0},{"OBJECT_NAME":"QIANFAN-84","OBJECT_ID":"2025-046M","EPOCH":"2026-03-26T12:55:51.240864","MEAN_MOTION":13.50836675,"ECCENTRICITY":0.0015696,"INCLINATION":88.9722,"RA_OF_ASC_NODE":309.3224,"ARG_OF_PERICENTER":179.0214,"MEAN_ANOMALY":181.0971,"EPHEMERIS_TYPE":0,"CLASSIFICATION_TYPE":"U","NORAD_CAT_ID":63170,"ELEMENT_SET_NO":999,"REV_AT_EPOCH":6141,"BSTAR":0.00021492,"MEAN_MOTION_DOT":1.51e-6,"MEAN_MOTION_DDOT":0},{"OBJECT_NAME":"QIANFAN-85","OBJECT_ID":"2025-046N","EPOCH":"2026-03-26T12:47:34.141920","MEAN_MOTION":13.50999305,"ECCENTRICITY":0.0012817,"INCLINATION":88.9721,"RA_OF_ASC_NODE":309.1937,"ARG_OF_PERICENTER":179.8244,"MEAN_ANOMALY":180.2914,"EPHEMERIS_TYPE":0,"CLASSIFICATION_TYPE":"U","NORAD_CAT_ID":63171,"ELEMENT_SET_NO":999,"REV_AT_EPOCH":6148,"BSTAR":2.9938e-5,"MEAN_MOTION_DOT":3.1e-7,"MEAN_MOTION_DDOT":0}]
