QIANFAN-69              
1 62799U 25016Q   26085.46091758  .00000032  00000+0  30856-4 0  9998
2 62799  88.9655  92.1976 0017454  50.6051 309.6643 13.51006348 61287
QIANFAN-70              
1 62800U 25016R   26085.47740889  .00000018  00000+0  85445-5 0  9997
2 62800  88.9675  92.3562 0016777  41.9761 318.2673 13.51007861 61249
QIANFAN-71              
1 62801U 25016S   26085.39924023  .00000021  00000+0  13801-4 0  9993
2 62801  88.9669  92.3376 0017451  54.0053 306.2713 13.50997381 61230
QIANFAN-72              
1 62802U 25016T   26085.48978257  .00000030  00000+0  27283-4 0  9991
2 62802  88.9660  92.3314 0020858  59.5872 300.7337 13.50996903 61238
QIANFAN-73              
1 63159U 25046A   26085.51660376  .00000061  00000+0  75668-4 0  9998
2 63159  88.9721 309.2973 0014645 176.9923 183.1319 13.51002674 61429
QIANFAN-74              
1 63160U 25046B   26085.50016899  .00000097  00000+0  13155-3 0  9995
2 63160  88.9721 309.1880 0002006  80.1802 279.9576 13.51003525 61488
QIANFAN-75              
1 63161U 25046C   26085.56207882  .00000032  00000+0  30540-4 0  9993
2 63161  88.9723 309.4168 0015706 180.5273 179.5865 13.50973315 61366
QIANFAN-76              
1 63162U 25046D   26085.55769887  .00000042  00000+0  46244-4 0  9990
2 63162  88.9723 309.3970 0013230 179.8535 180.2622 13.50999872 61376
QIANFAN-77              
1 63163U 25046E   26085.53619182  .00000114  00000+0  73059-4 0  9995
2 63163  88.9720 306.5519 0016605 112.9597 247.3334 13.96183657 62931
QIANFAN-78              
1 63164U 25046F   26085.45075453  .00000156  00000+0  22352-3 0  9999
2 63164  88.9721 309.2711 0014485 183.4255 176.6799 13.51005160 61431
QIANFAN-79              
1 63165U 25046G   26085.55361078  .00000075  00000+0  98059-4 0  9990
2 63165  88.9725 309.3720 0014400 181.3693 178.7421 13.51013818 61396
QIANFAN-80              
1 63166U 25046H   26085.49600927  .00000041  00000+0  44582-4 0  9998
2 63166  88.9722 309.0820 0013106 185.2630 174.8385 13.51002333 61541
QIANFAN-81              
1 63167U 25046J   26085.54860091  .00000011  00000+0 -22459-5 0  9993
2 63167  88.9722 309.1445 0014487 174.6317 185.4993 13.50967612 61501
QIANFAN-82              
1 63168U 25046K   26085.50837274  .00000042  00000+0  45567-4 0  9994
2 63168  88.9722 309.1925 0012364 180.7680 179.3454 13.51003960 61487
QIANFAN-83              
1 63169U 25046L   26085.50551818  .00000087  00000+0  96674-4 0  9996
2 63169  88.9722 308.7651 0014372 160.7714 199.3989 13.62027922 61724
QIANFAN-84              
1 63170U 25046M   26085.53878751  .00000151  00000+0  21492-3 0  9996
2 63170  88.9722 309.3224 0015696 179.0214 181.0971 13.50836675 61412
QIANFAN-85              
1 63171U 25046N   26085.53303405  .00000031  00000+0  29938-4 0  9997
2 63171  88.9721 309.1937 0012817 179.8244 180.2914 13.50999305 61489
